[{"OBJECT_NAME":"ONEWEB-0368","OBJECT_ID":"2021-090R","EPOCH":"2026-03-05T02:55:52.597920","MEAN_MOTION":13.20773214,"ECCENTRICITY":9.62e-5,"INCLINATION":87.9173,"RA_OF_ASC_NODE":295.2387,"ARG_OF_PERICENTER":104.707,"MEAN_ANOMALY":255.4169,"EPHEMERIS_TYPE":0,"CLASSIFICATION_TYPE":"U","NORAD_CAT_ID":49294,"ELEMENT_SET_NO":999,"REV_AT_EPOCH":21724,"BSTAR":0.00041991,"MEAN_MOTION_DOT":1.84e-6,"MEAN_MOTION_DDOT":0},{"OBJECT_NAME":"ONEWEB-0369","OBJECT_ID":"2021-090S","EPOCH":"2026-03-05T03:52:18.517152","MEAN_MOTION":13.19725748,"ECCENTRICITY":0.000159,"INCLINATION":87.9237,"RA_OF_ASC_NODE":325.7001,"ARG_OF_PERICENTER":81.7994,"MEAN_ANOMALY":278.332,"EPHEMERIS_TYPE":0,"CLASSIFICATION_TYPE":"U","NORAD_CAT_ID":49295,"ELEMENT_SET_NO":999,"REV_AT_EPOCH":21269,"BSTAR":0.00011564,"MEAN_MOTION_DOT":5.9e-7,"MEAN_MOTION_DDOT":0},{"OBJECT_NAME":"ONEWEB-0370","OBJECT_ID":"2021-090T","EPOCH":"2026-03-05T03:48:09.838944","MEAN_MOTION":13.2077217,"ECCENTRICITY":0.0001885,"INCLINATION":87.9178,"RA_OF_ASC_NODE":295.2109,"ARG_OF_PERICENTER":81.6701,"MEAN_ANOMALY":278.4646,"EPHEMERIS_TYPE":0,"CLASSIFICATION_TYPE":"U","NORAD_CAT_ID":49296,"ELEMENT_SET_NO":999,"REV_AT_EPOCH":21613,"BSTAR":0.00019154,"MEAN_MOTION_DOT":9.1e-7,"MEAN_MOTION_DDOT":0},{"OBJECT_NAME":"ONEWEB-0371","OBJECT_ID":"2021-090U","EPOCH":"2026-03-05T02:14:30.312960","MEAN_MOTION":13.19725928,"ECCENTRICITY":0.0001732,"INCLINATION":87.924,"RA_OF_ASC_NODE":325.7024,"ARG_OF_PERICENTER":82.8612,"MEAN_ANOMALY":277.2717,"EPHEMERIS_TYPE":0,"CLASSIFICATION_TYPE":"U","NORAD_CAT_ID":49297,"ELEMENT_SET_NO":999,"REV_AT_EPOCH":21272,"BSTAR":-7.9182e-5,"MEAN_MOTION_DOT":-1.9e-7,"MEAN_MOTION_DDOT":0},{"OBJECT_NAME":"ONEWEB-0372","OBJECT_ID":"2021-090V","EPOCH":"2026-03-05T03:32:03.784992","MEAN_MOTION":13.20772122,"ECCENTRICITY":0.0001592,"INCLINATION":87.918,"RA_OF_ASC_NODE":295.213,"ARG_OF_PERICENTER":87.2049,"MEAN_ANOMALY":272.9267,"EPHEMERIS_TYPE":0,"CLASSIFICATION_TYPE":"U","NORAD_CAT_ID":49298,"ELEMENT_SET_NO":999,"REV_AT_EPOCH":21610,"BSTAR":0.00021707,"MEAN_MOTION_DOT":1.01e-6,"MEAN_MOTION_DDOT":0},{"OBJECT_NAME":"ONEWEB-0373","OBJECT_ID":"2021-090W","EPOCH":"2026-03-05T02:21:47.185920","MEAN_MOTION":13.20770012,"ECCENTRICITY":0.0001626,"INCLINATION":87.917,"RA_OF_ASC_NODE":295.2287,"ARG_OF_PERICENTER":81.9617,"MEAN_ANOMALY":278.1701,"EPHEMERIS_TYPE":0,"CLASSIFICATION_TYPE":"U","NORAD_CAT_ID":49299,"ELEMENT_SET_NO":999,"REV_AT_EPOCH":21728,"BSTAR":8.7936e-5,"MEAN_MOTION_DOT":4.9e-7,"MEAN_MOTION_DDOT":0},{"OBJECT_NAME":"ONEWEB-0374","OBJECT_ID":"2021-090X","EPOCH":"2026-03-05T03:24:14.228640","MEAN_MOTION":13.1450174,"ECCENTRICITY":0.0001152,"INCLINATION":87.8997,"RA_OF_ASC_NODE":310.4558,"ARG_OF_PERICENTER":69.3208,"MEAN_ANOMALY":290.8045,"EPHEMERIS_TYPE":0,"CLASSIFICATION_TYPE":"U","NORAD_CAT_ID":49300,"ELEMENT_SET_NO":999,"REV_AT_EPOCH":21389,"BSTAR":0.00056132,"MEAN_MOTION_DOT":2.21e-6,"MEAN_MOTION_DDOT":0},{"OBJECT_NAME":"ONEWEB-0375","OBJECT_ID":"2021-090Y","EPOCH":"2026-03-05T02:03:37.547136","MEAN_MOTION":13.20772047,"ECCENTRICITY":0.0001426,"INCLINATION":87.918,"RA_OF_ASC_NODE":295.2183,"ARG_OF_PERICENTER":64.7277,"MEAN_ANOMALY":295.4003,"EPHEMERIS_TYPE":0,"CLASSIFICATION_TYPE":"U","NORAD_CAT_ID":49301,"ELEMENT_SET_NO":999,"REV_AT_EPOCH":21678,"BSTAR":0.00019579,"MEAN_MOTION_DOT":9.3e-7,"MEAN_MOTION_DDOT":0},{"OBJECT_NAME":"ONEWEB-0376","OBJECT_ID":"2021-090Z","EPOCH":"2026-03-05T04:01:23.776320","MEAN_MOTION":13.19726974,"ECCENTRICITY":0.0001692,"INCLINATION":87.9242,"RA_OF_ASC_NODE":325.6812,"ARG_OF_PERICENTER":88.3756,"MEAN_ANOMALY":271.757,"EPHEMERIS_TYPE":0,"CLASSIFICATION_TYPE":"U","NORAD_CAT_ID":49302,"ELEMENT_SET_NO":999,"REV_AT_EPOCH":21273,"BSTAR":0.00017499,"MEAN_MOTION_DOT":8.3e-7,"MEAN_MOTION_DDOT":0},{"OBJECT_NAME":"ONEWEB-0377","OBJECT_ID":"2021-090AA","EPOCH":"2026-03-05T03:32:26.538432","MEAN_MOTION":13.20775201,"ECCENTRICITY":0.0001774,"INCLINATION":87.918,"RA_OF_ASC_NODE":295.2077,"ARG_OF_PERICENTER":77.955,"MEAN_ANOMALY":282.1782,"EPHEMERIS_TYPE":0,"CLASSIFICATION_TYPE":"U","NORAD_CAT_ID":49303,"ELEMENT_SET_NO":999,"REV_AT_EPOCH":21678,"BSTAR":-0.0029105,"MEAN_MOTION_DOT":-1.17e-5,"MEAN_MOTION_DDOT":0},{"OBJECT_NAME":"ONEWEB-0378","OBJECT_ID":"2021-090AB","EPOCH":"2026-03-05T02:15:09.501408","MEAN_MOTION":13.20773273,"ECCENTRICITY":0.000147,"INCLINATION":87.917,"RA_OF_ASC_NODE":295.2296,"ARG_OF_PERICENTER":81.8145,"MEAN_ANOMALY":278.3155,"EPHEMERIS_TYPE":0,"CLASSIFICATION_TYPE":"U","NORAD_CAT_ID":49304,"ELEMENT_SET_NO":999,"REV_AT_EPOCH":21604,"BSTAR":0.00019545,"MEAN_MOTION_DOT":9.2e-7,"MEAN_MOTION_DDOT":0},{"OBJECT_NAME":"ONEWEB-0379","OBJECT_ID":"2021-090AC","EPOCH":"2026-03-05T03:17:23.412192","MEAN_MOTION":13.14502608,"ECCENTRICITY":0.0001493,"INCLINATION":87.8997,"RA_OF_ASC_NODE":310.4664,"ARG_OF_PERICENTER":82.2253,"MEAN_ANOMALY":277.9046,"EPHEMERIS_TYPE":0,"CLASSIFICATION_TYPE":"U","NORAD_CAT_ID":49305,"ELEMENT_SET_NO":999,"REV_AT_EPOCH":21389,"BSTAR":0.00080976,"MEAN_MOTION_DOT":3.13e-6,"MEAN_MOTION_DDOT":0},{"OBJECT_NAME":"ONEWEB-0380","OBJECT_ID":"2021-090AD","EPOCH":"2026-03-05T02:07:40.418400","MEAN_MOTION":13.19725973,"ECCENTRICITY":0.0001731,"INCLINATION":87.9236,"RA_OF_ASC_NODE":325.7124,"ARG_OF_PERICENTER":71.4952,"MEAN_ANOMALY":288.6368,"EPHEMERIS_TYPE":0,"CLASSIFICATION_TYPE":"U","NORAD_CAT_ID":49306,"ELEMENT_SET_NO":999,"REV_AT_EPOCH":21269,"BSTAR":-0.00019926,"MEAN_MOTION_DOT":-6.7e-7,"MEAN_MOTION_DDOT":0},{"OBJECT_NAME":"ONEWEB-0381","OBJECT_ID":"2021-090AE","EPOCH":"2026-03-05T03:27:41.270688","MEAN_MOTION":13.2077335,"ECCENTRICITY":0.0001431,"INCLINATION":87.9181,"RA_OF_ASC_NODE":295.2119,"ARG_OF_PERICENTER":75.1052,"MEAN_ANOMALY":285.0239,"EPHEMERIS_TYPE":0,"CLASSIFICATION_TYPE":"U","NORAD_CAT_ID":49307,"ELEMENT_SET_NO":999,"REV_AT_EPOCH":21609,"BSTAR":0.00010293,"MEAN_MOTION_DOT":5.5e-7,"MEAN_MOTION_DDOT":0},{"OBJECT_NAME":"ONEWEB-0382","OBJECT_ID":"2021-090AF","EPOCH":"2026-03-05T03:09:30.736800","MEAN_MOTION":13.20773476,"ECCENTRICITY":0.0001303,"INCLINATION":87.9182,"RA_OF_ASC_NODE":295.2108,"ARG_OF_PERICENTER":77.5373,"MEAN_ANOMALY":282.5906,"EPHEMERIS_TYPE":0,"CLASSIFICATION_TYPE":"U","NORAD_CAT_ID":49308,"ELEMENT_SET_NO":999,"REV_AT_EPOCH":21608,"BSTAR":0.00025535,"MEAN_MOTION_DOT":1.17e-6,"MEAN_MOTION_DDOT":0},{"OBJECT_NAME":"ONEWEB-0383","OBJECT_ID":"2021-090AG","EPOCH":"2026-03-05T03:08:14.886240","MEAN_MOTION":13.14501661,"ECCENTRICITY":0.0001416,"INCLINATION":87.8996,"RA_OF_ASC_NODE":310.4543,"ARG_OF_PERICENTER":82.3044,"MEAN_ANOMALY":277.8246,"EPHEMERIS_TYPE":0,"CLASSIFICATION_TYPE":"U","NORAD_CAT_ID":49309,"ELEMENT_SET_NO":999,"REV_AT_EPOCH":21392,"BSTAR":0.00076126,"MEAN_MOTION_DOT":2.95e-6,"MEAN_MOTION_DDOT":0},{"OBJECT_NAME":"ONEWEB-0384","OBJECT_ID":"2021-090AH","EPOCH":"2026-03-05T02:57:13.506336","MEAN_MOTION":13.20806992,"ECCENTRICITY":0.0001099,"INCLINATION":87.9187,"RA_OF_ASC_NODE":295.2555,"ARG_OF_PERICENTER":76.4862,"MEAN_ANOMALY":283.6394,"EPHEMERIS_TYPE":0,"CLASSIFICATION_TYPE":"U","NORAD_CAT_ID":49310,"ELEMENT_SET_NO":999,"REV_AT_EPOCH":21609,"BSTAR":0.00032587,"MEAN_MOTION_DOT":1.46e-6,"MEAN_MOTION_DDOT":0},{"OBJECT_NAME":"ONEWEB-0385","OBJECT_ID":"2021-090AJ","EPOCH":"2026-03-05T02:58:10.507872","MEAN_MOTION":13.20771848,"ECCENTRICITY":0.0001445,"INCLINATION":87.9182,"RA_OF_ASC_NODE":295.2169,"ARG_OF_PERICENTER":77.9785,"MEAN_ANOMALY":282.1511,"EPHEMERIS_TYPE":0,"CLASSIFICATION_TYPE":"U","NORAD_CAT_ID":49311,"ELEMENT_SET_NO":999,"REV_AT_EPOCH":21606,"BSTAR":0.00011971,"MEAN_MOTION_DOT":6.2e-7,"MEAN_MOTION_DDOT":0},{"OBJECT_NAME":"ONEWEB-0386","OBJECT_ID":"2021-090AK","EPOCH":"2026-03-05T03:23:09.265344","MEAN_MOTION":13.20770508,"ECCENTRICITY":0.0001356,"INCLINATION":87.9184,"RA_OF_ASC_NODE":295.1984,"ARG_OF_PERICENTER":80.6731,"MEAN_ANOMALY":279.4556,"EPHEMERIS_TYPE":0,"CLASSIFICATION_TYPE":"U","NORAD_CAT_ID":49312,"ELEMENT_SET_NO":999,"REV_AT_EPOCH":21608,"BSTAR":0.00024162,"MEAN_MOTION_DOT":1.11e-6,"MEAN_MOTION_DDOT":0},{"OBJECT_NAME":"ONEWEB-0387","OBJECT_ID":"2021-090AL","EPOCH":"2026-03-05T03:00:25.555392","MEAN_MOTION":13.20773407,"ECCENTRICITY":0.0001657,"INCLINATION":87.9173,"RA_OF_ASC_NODE":295.2389,"ARG_OF_PERICENTER":71.2572,"MEAN_ANOMALY":288.8741,"EPHEMERIS_TYPE":0,"CLASSIFICATION_TYPE":"U","NORAD_CAT_ID":49313,"ELEMENT_SET_NO":999,"REV_AT_EPOCH":21608,"BSTAR":0.00010091,"MEAN_MOTION_DOT":5.4e-7,"MEAN_MOTION_DDOT":0},{"OBJECT_NAME":"ONEWEB-0388","OBJECT_ID":"2021-090AM","EPOCH":"2026-03-05T03:50:01.338144","MEAN_MOTION":13.19726642,"ECCENTRICITY":0.0001527,"INCLINATION":87.9233,"RA_OF_ASC_NODE":325.6952,"ARG_OF_PERICENTER":77.8654,"MEAN_ANOMALY":282.265,"EPHEMERIS_TYPE":0,"CLASSIFICATION_TYPE":"U","NORAD_CAT_ID":49314,"ELEMENT_SET_NO":999,"REV_AT_EPOCH":21269,"BSTAR":-2.6633e-5,"MEAN_MOTION_DOT":2.0e-8,"MEAN_MOTION_DDOT":0},{"OBJECT_NAME":"ONEWEB-0389","OBJECT_ID":"2021-132A","EPOCH":"2026-03-05T03:59:17.631456","MEAN_MOTION":13.17648477,"ECCENTRICITY":0.0001775,"INCLINATION":87.9142,"RA_OF_ASC_NODE":26.5253,"ARG_OF_PERICENTER":69.4889,"MEAN_ANOMALY":290.6432,"EPHEMERIS_TYPE":0,"CLASSIFICATION_TYPE":"U","NORAD_CAT_ID":50469,"ELEMENT_SET_NO":999,"REV_AT_EPOCH":20438,"BSTAR":4.1143e-5,"MEAN_MOTION_DOT":2.9e-7,"MEAN_MOTION_DDOT":0},{"OBJECT_NAME":"ONEWEB-0390","OBJECT_ID":"2021-132B","EPOCH":"2026-03-04T07:58:51.348864","MEAN_MOTION":13.17651452,"ECCENTRICITY":0.00021286,"INCLINATION":87.914,"RA_OF_ASC_NODE":26.6914,"ARG_OF_PERICENTER":81.8635,"MEAN_ANOMALY":278.2738,"EPHEMERIS_TYPE":0,"CLASSIFICATION_TYPE":"U","NORAD_CAT_ID":50470,"ELEMENT_SET_NO":999,"REV_AT_EPOCH":20427,"BSTAR":0.0002833574,"MEAN_MOTION_DOT":1.23e-6,"MEAN_MOTION_DDOT":0},{"OBJECT_NAME":"ONEWEB-0391","OBJECT_ID":"2021-132C","EPOCH":"2026-03-05T04:04:09.399072","MEAN_MOTION":13.17648942,"ECCENTRICITY":0.0002156,"INCLINATION":87.9142,"RA_OF_ASC_NODE":26.5342,"ARG_OF_PERICENTER":57.7882,"MEAN_ANOMALY":302.3458,"EPHEMERIS_TYPE":0,"CLASSIFICATION_TYPE":"U","NORAD_CAT_ID":50471,"ELEMENT_SET_NO":999,"REV_AT_EPOCH":20438,"BSTAR":9.5693e-5,"MEAN_MOTION_DOT":5.0e-7,"MEAN_MOTION_DDOT":0}]
